NORAD_CAT_ID,OBJECT_NAME,OBJECT_TYPE,EPOCH,MEAN_MOTION,ECCENTRICITY,INCLINATION,RA_OF_ASC_NODE,ARG_OF_PERICENTER,MEAN_ANOMALY,BSTAR,MEAN_MOTION_DOT,MEAN_MOTION_DDOT,TLE_LINE0,TLE_LINE1,TLE_LINE2,SEMIMAJOR_AXIS,PERIOD,APOGEE,PERIGEE,DECAYED
49732.0,STARLINK-3246,PAYLOAD,2023-03-08 02:54:43,15.08852755,0.0001641,53.2171,46.2681,98.9234,261.1944,0.0014379,0.00022678,0.0,0 STARLINK-3246,1 49732U 21115J   23067.12133721  .00022678  00000-0  14379-2 0  9994,2 49732  53.2171  46.2681 0001641  98.9234 261.1944 15.08852755 70808,6917.841,95.437,540.842,538.571,0.0
49732.0,STARLINK-3246,PAYLOAD,2023-03-08 21:59:21,15.08860207,0.0002024,53.2169,42.7024,83.7947,276.3275,0.0020512,0.00032526,0.0,0 STARLINK-3246,1 49732U 21115J   23067.91622003  .00032526  00000-0  20512-2 0  9996,2 49732  53.2169  42.7024 0002024  83.7947 276.3275 15.08860207 70925,6917.819,95.436,541.084,538.283,0.0
49732.0,STARLINK-3246,PAYLOAD,2023-03-09 15:28:35,15.08861868,0.0001725,53.218,39.4287,82.244,277.8748,0.0019808,0.00031396,0.0,0 STARLINK-3246,1 49732U 21115J   23068.64485856  .00031396  00000-0  19808-2 0  9990,2 49732  53.2180  39.4287 0001725  82.2440 277.8748 15.08861868 71039,6917.814,95.436,540.872,538.485,0.0
49732.0,STARLINK-3246,PAYLOAD,2023-03-09 21:50:08,15.08858292,0.0001363,53.2178,38.2402,82.6703,277.4444,0.0013387,0.00021092,0.0,0 STARLINK-3246,1 49732U 21115J   23068.90981582  .00021092  00000-0  13387-2 0  9994,2 49732  53.2178  38.2402 0001363  82.6703 277.4444 15.08858292 69961,6917.824,95.436,540.632,538.747,0.0
49732.0,STARLINK-3246,PAYLOAD,2023-03-10 04:11:40,15.08864792,0.0001278,53.2183,37.0509,81.7299,278.3839,0.001813,0.00028703,0.0,0 STARLINK-3246,1 49732U 21115J   23069.17477350  .00028703  00000-0  18130-2 0  9994,2 49732  53.2183  37.0509 0001278  81.7299 278.3839 15.08864792 71117,6917.805,95.436,540.554,538.786,0.0
49732.0,STARLINK-3246,PAYLOAD,2023-03-10 15:19:22,15.08855613,0.00016,53.2187,34.9705,82.3577,277.7597,0.00087011,0.00013593,0.0,0 STARLINK-3246,1 49732U 21115J   23069.63845353  .00013593  00000-0  87011-3 0  9993,2 49732  53.2187  34.9705 0001600  82.3577 277.7597 15.08855613 71183,6917.833,95.437,540.805,538.591,0.0
49732.0,STARLINK-3246,PAYLOAD,2023-03-11 04:02:27,15.08838366,0.0001226,53.2185,32.59,122.83,237.281,0.0024401,0.00038758,0.0,0 STARLINK-3246,1 49732U 21115J   23070.16837784  .00038758  00000-0  24401-2 0  9995,2 49732  53.2185  32.5900 0001226 122.8300 237.2810 15.08838366 71264,6917.885,95.438,540.599,538.902,0.0
49732.0,STARLINK-3246,PAYLOAD,2023-03-11 21:31:42,15.08852139,0.00012,53.2188,29.32,115.3764,244.7353,0.0020274,0.00032136,0.0,0 STARLINK-3246,1 49732U 21115J   23070.89702514  .00032136  00000-0  20274-2 0  9995,2 49732  53.2188  29.3200 0001200 115.3764 244.7353 15.08852139 70265,6917.843,95.437,540.538,538.878,0.0
49732.0,STARLINK-3246,PAYLOAD,2023-03-12 07:04:01,15.08859235,0.0001161,53.2192,27.5343,115.0517,245.0595,0.0015614,0.00024662,0.0,0 STARLINK-3246,1 49732U 21115J   23071.29446277  .00024662  00000-0  15614-2 0  9998,2 49732  53.2192  27.5343 0001161 115.0517 245.0595 15.08859235 71433,6917.822,95.436,540.49,538.883,0.0
49732.0,STARLINK-3246,PAYLOAD,2023-03-12 21:22:29,15.088565,0.0001347,53.2192,24.8563,79.1892,280.9252,0.00086443,0.00013502,0.0,0 STARLINK-3246,1 49732U 21115J   23071.89062285  .00013502  00000-0  86443-3 0  9997,2 49732  53.2192  24.8563 0001347  79.1892 280.9252 15.08856500 71529,6917.83,95.437,540.627,538.763,0.0
49732.0,STARLINK-3246,PAYLOAD,2023-03-13 00:33:15,15.08855859,0.0001317,53.2178,24.2618,116.0793,244.0334,0.00041455,6.319e-05,0.0,0 STARLINK-3246,1 49732U 21115J   23072.02309929  .00006319  00000-0  41455-3 0  9994,2 49732  53.2178  24.2618 0001317 116.0793 244.0334 15.08855859 70433,6917.832,95.437,540.608,538.786,0.0
49732.0,STARLINK-3246,PAYLOAD,2023-03-14 05:10:12,15.08845436,0.0001274,53.2177,18.9089,123.7299,236.3814,0.00029049,4.339e-05,0.0,0 STARLINK-3246,1 49732U 21115J   23073.21542074  .00004339  00000-0  29049-3 0  9991,2 49732  53.2177  18.9089 0001274 123.7299 236.3814 15.08845436 71722,6917.864,95.437,540.61,538.847,0.0
49732.0,STARLINK-3246,PAYLOAD,2023-03-14 13:07:08,15.08842025,0.0001371,53.2174,17.4237,120.9423,239.1704,0.00014496,2.02e-05,0.0,0 STARLINK-3246,1 49732U 21115J   23073.54662244  .00002020  00000-0  14496-3 0  9994,2 49732  53.2174  17.4237 0001371 120.9423 239.1704 15.08842025 70666,6917.874,95.437,540.688,538.791,0.0
49732.0,STARLINK-3246,PAYLOAD,2023-03-15 03:25:34,15.08874704,0.0001259,53.2178,14.7497,141.792,218.3162,0.00083416,0.00013025,0.0,0 STARLINK-3246,1 49732U 21115J   23074.14276565  .00013025  00000-0  83416-3 0  9993,2 49732  53.2178  14.7497 0001259 141.7920 218.3162 15.08874704 71865,6917.774,95.435,540.51,538.768,0.0
49732.0,STARLINK-3246,PAYLOAD,2023-03-16 03:16:22,15.08850275,0.000122,53.2168,10.2868,122.1714,237.9396,0.00019862,2.875e-05,0.0,0 STARLINK-3246,1 49732U 21115J   23075.13637510  .00002875  00000-0  19862-3 0  9999,2 49732  53.2168  10.2868 0001220 122.1714 237.9396 15.08850275 72010,6917.849,95.437,540.558,538.87,0.0
49732.0,STARLINK-3246,PAYLOAD,2023-03-16 06:27:08,15.08858616,0.0001241,53.2169,9.6937,134.7545,225.3548,0.00063839,9.892e-05,0.0,0 STARLINK-3246,1 49732U 21115J   23075.26885124  .00009892  00000-0  63839-3 0  9998,2 49732  53.2169   9.6937 0001241 134.7545 225.3548 15.08858616 72033,6917.823,95.436,540.547,538.83,0.0
49732.0,STARLINK-3246,PAYLOAD,2023-03-16 19:10:15,15.08824496,0.0001114,53.2179,7.3111,116.1807,243.93,-0.00020987,-3.625e-05,0.0,0 STARLINK-3246,1 49732U 21115J   23075.79878620 -.00003625  00000-0 -20987-3 0  9996,2 49732  53.2179   7.3111 0001114 116.1807 243.9300 15.08824496 72117,6917.928,95.439,540.563,539.022,0.0
49732.0,STARLINK-3246,PAYLOAD,2023-03-17 12:39:30,15.08829454,0.0001259,53.2176,4.0454,72.2736,287.8393,0.00081617,0.00012721,0.0,0 STARLINK-3246,1 49732U 21115J   23076.52743532  .00012721  00000-0  81617-3 0  9993,2 49732  53.2176   4.0454 0001259  72.2736 287.8393 15.08829454 71118,6917.913,95.438,540.649,538.907,0.0
49732.0,STARLINK-3246,PAYLOAD,2023-03-17 19:01:02,15.08843494,0.0001097,53.217,2.8551,74.9803,285.1311,0.0012788,0.00020125,0.0,0 STARLINK-3246,1 49732U 21115J   23076.79239481  .00020125  00000-0  12788-2 0  9994,2 49732  53.2170   2.8551 0001097  74.9803 285.1311 15.08843494 72268,6917.87,95.437,540.494,538.976,0.0
49732.0,STARLINK-3246,PAYLOAD,2023-03-18 12:30:17,15.08859551,0.0001245,53.2177,359.5836,80.136,279.9773,0.0010155,0.00015919,0.0,0 STARLINK-3246,1 49732U 21115J   23077.52103031  .00015919  00000-0  10155-2 0  9998,2 49732  53.2177 359.5836 0001245  80.1360 279.9773 15.08859551 72371,6917.821,95.436,540.547,538.824,0.0
49732.0,STARLINK-3246,PAYLOAD,2023-03-18 18:51:49,15.08852786,0.0001487,53.2184,358.3951,86.9693,273.1469,0.00059918,9.264e-05,0.0,0 STARLINK-3246,1 49732U 21115J   23077.78599026  .00009264  00000-0  59918-3 0  9996,2 49732  53.2184 358.3951 0001487  86.9693 273.1469 15.08852786 72411,6917.841,95.437,540.735,538.678,0.0
49732.0,STARLINK-3246,PAYLOAD,2023-03-18 22:02:35,15.08853311,0.0001361,53.2182,357.8009,81.5447,278.57,0.00043569,6.655e-05,0.0,0 STARLINK-3246,1 49732U 21115J   23077.91846887  .00006655  00000-0  43569-3 0  9997,2 49732  53.2182 357.8009 0001361  81.5447 278.5700 15.08853311 71327,6917.84,95.437,540.646,538.763,0.0
49732.0,STARLINK-3246,PAYLOAD,2023-03-19 01:13:21,15.08860139,0.0001419,53.2181,357.2051,84.2749,275.8404,0.00059796,9.247e-05,0.0,0 STARLINK-3246,1 49732U 21115J   23078.05094612  .00009247  00000-0  59796-3 0  9993,2 49732  53.2181 357.2051 0001419  84.2749 275.8404 15.08860139 71345,6917.819,95.436,540.665,538.702,0.0
49732.0,STARLINK-3246,PAYLOAD,2023-03-19 21:53:22,15.08851403,0.0001323,53.2179,353.3397,85.1378,274.9765,0.00026898,3.997e-05,0.0,0 STARLINK-3246,1 49732U 21115J   23078.91206503  .00003997  00000-0  26898-3 0  9995,2 49732  53.2179 353.3397 0001323  85.1378 274.9765 15.08851403 71472,6917.846,95.437,540.626,538.795,0.0
49732.0,STARLINK-3246,PAYLOAD,2023-03-20 04:14:54,15.08859256,0.0001319,53.218,352.1513,69.5372,290.5762,0.00055532,8.566e-05,0.0,0 STARLINK-3246,1 49732U 21115J   23079.17702290  .00008566  00000-0  55532-3 0  9992,2 49732  53.2180 352.1513 0001319  69.5372 290.5762 15.08859256 72629,6917.822,95.436,540.599,538.774,0.0
49732.0,STARLINK-3246,PAYLOAD,2023-03-21 00:54:55,15.08848657,0.0001217,53.2176,348.2864,76.8896,283.2232,0.0011733,0.00018439,0.0,0 STARLINK-3246,1 49732U 21115J   23080.03814705  .00018439  00000-0  11733-2 0  9998,2 49732  53.2176 348.2864 0001217  76.8896 283.2232 15.08848657 72756,6917.854,95.437,540.561,538.877,0.0
49732.0,STARLINK-3246,PAYLOAD,2023-03-21 21:34:56,15.08844541,0.0001101,53.2172,344.4186,86.545,273.5668,0.00095273,0.00014909,0.0,0 STARLINK-3246,1 49732U 21115J   23080.89926892  .00014909  00000-0  95273-3 0  9993,2 49732  53.2172 344.4186 0001101  86.5450 273.5668 15.08844541 72880,6917.867,95.437,540.493,538.97,0.0
49732.0,STARLINK-3246,PAYLOAD,2023-03-22 21:25:43,15.0883998,0.0001143,53.2168,339.9603,97.0974,263.0148,0.00074778,0.00011633,0.0,0 STARLINK-3246,1 49732U 21115J   23081.89286957  .00011633  00000-0  74778-3 0  9993,2 49732  53.2168 339.9603 0001143  97.0974 263.0148 15.08839980 71924,6917.88,95.438,540.536,538.955,0.0
49732.0,STARLINK-3246,PAYLOAD,2023-03-23 02:11:53,15.08850182,0.0001137,53.2166,339.0688,107.2938,252.8179,0.00032715,4.924e-05,0.0,0 STARLINK-3246,1 49732U 21115J   23082.09158588  .00004924  00000-0  32715-3 0  9994,2 49732  53.2166 339.0688 0001137 107.2938 252.8179 15.08850182 73067,6917.849,95.437,540.501,538.928,0.0
49732.0,STARLINK-3246,PAYLOAD,2023-03-23 22:51:54,15.08839761,7.75e-05,53.216,335.201,79.1907,280.9173,0.00013479,1.858e-05,0.0,0 STARLINK-3246,1 49732U 21115J   23082.95271057  .00001858  00000-0  13479-3 0  9995,2 49732  53.2160 335.2010 0000775  79.1907 280.9173 15.08839761 72085,6917.881,95.438,540.282,539.21,0.0
